H1 CPF  1  DLR 2021 07 31 10  7122 technosat            
H2  1704205 6203    42829 2021 07 31 00 00 00 2021 08 07 00 00 00    60 1 1  0 0 0
H9
10 0 59429  21600.000000  0      -4618934.395      -4396849.798       2839319.331
10 0 59429  21660.000000  0      -4805686.884      -4446210.111       2424111.432
10 0 59429  21720.000000  0      -4972605.309      -4475354.345       1998651.095
10 0 59429  21780.000000  0      -5118813.383      -4484338.606       1564738.149
10 0 59429  21840.000000  0      -5243523.232      -4473311.373       1124208.130
10 0 59429  21900.000000  0      -5346039.580      -4442512.116        678924.404
10 0 59429  21960.000000  0      -5425763.502      -4392269.451        230770.138
10 0 59429  22020.000000  0      -5482195.732      -4322998.885       -218359.799
10 0 59429  22080.000000  0      -5514939.516      -4235200.156       -666567.024
10 0 59429  22140.000000  0      -5523702.962      -4129454.148      -1111957.862
10 0 59429  22200.000000  0      -5508300.859      -4006419.397      -1552651.533
10 0 59429  22260.000000  0      -5468655.954      -3866828.213      -1986788.218
10 0 59429  22320.000000  0      -5404799.724      -3711482.521      -2412536.952
10 0 59429  22380.000000  0      -5316872.671      -3541249.430      -2828103.400
10 0 59429  22440.000000  0      -5205124.068      -3357056.477      -3231737.438
10 0 59429  22500.000000  0      -5069911.228      -3159886.660      -3621740.454
10 0 59429  22560.000000  0      -4911698.299      -2950773.258      -3996472.456
10 0 59429  22620.000000  0      -4731054.521      -2730794.453      -4354358.867
10 0 59429  22680.000000  0      -4528652.009      -2501067.807      -4693896.999
10 0 59429  22740.000000  0      -4305263.085      -2262744.628      -5013662.174
10 0 59429  22800.000000  0      -4061757.164      -2017004.247      -5312313.500
10 0 59429  22860.000000  0      -3799097.221      -1765048.214      -5588599.263
10 0 59429  22920.000000  0      -3518335.853      -1508094.459      -5841361.904
10 0 59429  22980.000000  0      -3220610.962      -1247371.478      -6069542.595
10 0 59429  23040.000000  0      -2907141.076       -984112.524      -6272185.414
10 0 59429  23100.000000  0      -2579220.313       -719549.865      -6448441.087
10 0 59429  23160.000000  0      -2238213.006       -454909.135      -6597570.300
10 0 59429  23220.000000  0      -1885548.028       -191403.760      -6718946.520
10 0 59429  23280.000000  0      -1522712.909         69770.445      -6812058.360
10 0 59429  23340.000000  0      -1151247.754        327440.523      -6876511.600
10 0 59429  23400.000000  0       -772738.860        580461.542      -6912030.846
10 0 59429  23460.000000  0       -388812.090        827721.622      -6918460.652
10 0 59429  23520.000000  0         -1126.102       1068146.703      -6895766.149
10 0 59429  23580.000000  0        388634.545       1300705.044      -6844033.380
10 0 59429  23640.000000  0        778766.555       1524411.620      -6763469.308
10 0 59429  23700.000000  0       1167555.322       1738332.355      -6654401.170
10 0 59429  23760.000000  0       1553282.296       1941587.999      -6517275.264
10 0 59429  23820.000000  0       1934232.420       2133357.765      -6352655.491
10 0 59429  23880.000000  0       2308701.796       2312882.735      -6161221.381
10 0 59429  23940.000000  0       2675005.271       2479468.928      -5943765.512
10 0 59429  24000.000000  0       3031483.936       2632490.038      -5701190.569
10 0 59429  24060.000000  0       3376512.665       2771389.905      -5434506.042
10 0 59429  24120.000000  0       3708507.681       2895684.688      -5144824.455
10 0 59429  24180.000000  0       4025934.030       3004964.703      -4833357.023
10 0 59429  24240.000000  0       4327312.866       3098895.887      -4501408.905
10 0 59429  24300.000000  0       4611228.654       3177220.895      -4150373.989
10 0 59429  24360.000000  0       4876336.071       3239759.799      -3781729.188
10 0 59429  24420.000000  0       5121366.627       3286410.435      -3397028.404
10 0 59429  24480.000000  0       5345135.041       3317148.384      -2997896.134
10 0 59429  24540.000000  0       5546545.336       3332026.627      -2586020.690
10 0 59429  24600.000000  0       5724596.590       3331174.740      -2163146.951
10 0 59429  24660.000000  0       5878388.178       3314797.634      -1731068.857
10 0 59429  24720.000000  0       6007124.583       3283173.959      -1291621.651
10 0 59429  24780.000000  0       6110119.715       3236654.141       -846673.898
10 0 59429  24840.000000  0       6186800.777       3175658.047       -398119.276
10 0 59429  24900.000000  0       6236711.539       3100672.236         52131.817
10 0 59429  24960.000000  0       6259515.040       3012246.834        502160.714
10 0 59429  25020.000000  0       6254995.689       2910992.135        950048.973
10 0 59429  25080.000000  0       6223060.757       2797574.976       1393886.881
10 0 59429  25140.000000  0       6163741.291       2672714.812       1831781.962
10 0 59429  25200.000000  0       6077192.422       2537179.483       2261867.406
10 0 59429  25260.000000  0       5963693.026       2391780.729       2682310.405
10 0 59429  25320.000000  0       5823644.691       2237369.508       3091320.245
10 0 59429  25380.000000  0       5657570.111       2074831.204       3487156.175
10 0 59429  25440.000000  0       5466110.896       1905080.673       3868135.035
10 0 59429  25500.000000  0       5250024.764       1729057.142       4232638.582
10 0 59429  25560.000000  0       5010182.122       1547719.067       4579120.337
10 0 59429  25620.000000  0       4747562.327       1362039.014       4906112.064
10 0 59429  25680.000000  0       4463249.418       1172998.477       5212230.107
10 0 59429  25740.000000  0       4158427.216        981582.673       5496181.229
10 0 59429  25800.000000  0       3834373.964        788775.446       5756767.954
10 0 59429  25860.000000  0       3492456.534        595554.224       5992893.367
10 0 59429  25920.000000  0       3134124.372        402885.134       6203565.394
10 0 59429  25980.000000  0       2760903.179        211718.276       6387900.735
10 0 59429  26040.000000  0       2374388.199         22983.085       6545128.355
10 0 59429  26100.000000  0       1976237.243       -162416.124       6674592.458
10 0 59429  26160.000000  0       1568163.459       -343604.432       6775755.051
10 0 59429  26220.000000  0       1151927.774       -519740.420       6848198.006
10 0 59429  26280.000000  0        729331.166       -690020.042       6891624.471
10 0 59429  26340.000000  0        302206.886       -853680.200       6905859.884
10 0 59429  26400.000000  0       -127587.532      -1010002.138       6890852.537
10 0 59429  26460.000000  0       -558178.322      -1158314.561       6846673.595
10 0 59429  26520.000000  0       -987683.624      -1297996.490       6773516.668
10 0 59429  26580.000000  0      -1414221.660      -1428479.815       6671696.860
10 0 59429  26640.000000  0      -1835918.864      -1549251.537       6541649.375
10 0 59429  26700.000000  0      -2250918.003      -1659855.694       6383927.704
10 0 59429  26760.000000  0      -2657386.246      -1759895.028       6199201.445
10 0 59429  26820.000000  0      -3053523.310      -1849032.393       5988253.713
10 0 59429  26880.000000  0      -3437569.574      -1926991.858       5751977.941
10 0 59429  26940.000000  0      -3807813.950      -1993559.497       5491374.137
10 0 59429  27000.000000  0      -4162601.537      -2048583.848       5207544.797
10 0 59429  27060.000000  0      -4500341.156      -2091976.054       4901690.375
10 0 59429  27120.000000  0      -4819512.603      -2123709.683       4575104.268
10 0 59429  27180.000000  0      -5118673.579      -2143820.191       4229167.432
10 0 59429  27240.000000  0      -5396466.334      -2152404.077       3865342.651
10 0 59429  27300.000000  0      -5651623.966      -2149617.731       3485168.442
10 0 59429  27360.000000  0      -5882976.345      -2135675.990       3090252.634
10 0 59429  27420.000000  0      -6089455.664      -2110850.420       2682265.644
10 0 59429  27480.000000  0      -6270101.607      -2075467.326       2262933.444
10 0 59429  27540.000000  0      -6424066.078      -2029905.459       1834030.149
10 0 59429  27600.000000  0      -6550617.273      -1974593.405       1397370.314
10 0 59429  27660.000000  0      -6649143.173      -1910006.747        954801.167
10 0 59429  27720.000000  0      -6719154.587      -1836665.000        508194.719
10 0 59429  27780.000000  0      -6760287.642      -1755128.296         59439.673
10 0 59429  27840.000000  0      -6772305.614      -1665993.868       -389566.750
10 0 59429  27900.000000  0      -6755100.145      -1569892.382       -836926.989
10 0 59429  27960.000000  0      -6708691.865      -1467484.115      -1280751.312
10 0 59429  28020.000000  0      -6633230.399      -1359454.982      -1719165.920
10 0 59429  28080.000000  0      -6528993.760      -1246512.491      -2150320.938
10 0 59429  28140.000000  0      -6396387.177      -1129381.630      -2572398.296
10 0 59429  28200.000000  0      -6235941.311      -1008800.678      -2983619.455
10 0 59429  28260.000000  0      -6048309.882       -885516.965      -3382252.916
10 0 59429  28320.000000  0      -5834266.762       -760282.623      -3766621.478
10 0 59429  28380.000000  0      -5594702.517       -633850.352      -4135109.230
10 0 59429  28440.000000  0      -5330620.426       -506969.214      -4486168.225
10 0 59429  28500.000000  0      -5043132.008       -380380.523      -4818324.823
10 0 59429  28560.000000  0      -4733452.117       -254813.833      -5130185.680
10 0 59429  28620.000000  0      -4402893.575       -130983.019      -5420443.422
10 0 59429  28680.000000  0      -4052861.370         -9582.482      -5687881.838
10 0 59429  28740.000000  0      -3684846.526        108716.493      -5931380.681
99
